$$SOE
2460154.500000000, A.D. 2023-Jul-29 00:00:00.0000, 8.043778052213399E+07, 3.074513131607273E+08, -1.834294153651094E+07,
2460161.500000000, A.D. 2023-Aug-05 00:00:00.0000, 6.802500561226358E+07, 3.108318552117267E+08, -1.954555308926322E+07,
2460168.500000000, A.D. 2023-Aug-12 00:00:00.0000, 5.551036423493833E+07, 3.137467110604098E+08, -2.071888005897976E+07,
2460175.500000000, A.D. 2023-Aug-19 00:00:00.0000, 4.291299111227424E+07, 3.161937340599304E+08, -2.186131108965357E+07,
2460182.500000000, A.D. 2023-Aug-26 00:00:00.0000, 3.025199108677173E+07, 3.181716907401305E+08, -2.297130965340568E+07,
2460189.500000000, A.D. 2023-Sep-02 00:00:00.0000, 1.754638694227675E+07, 3.196802476005035E+08, -2.404741692419411E+07,
2460196.500000000, A.D. 2023-Sep-09 00:00:00.0000, 4.815069074283740E+06, 3.207199542847371E+08, -2.508825424609818E+07,
2460203.500000000, A.D. 2023-Sep-16 00:00:00.0000, -7.923252557296656E+06, 3.212922233206695E+08, -2.609252521543880E+07,
2460210.500000000, A.D. 2023-Sep-23 00:00:00.0000, -2.065009354484495E+07, 3.213993069752039E+08, -2.705901739462833E+07,
2460217.500000000, A.D. 2023-Sep-30 00:00:00.0000, -3.334723736045394E+07, 3.210442726971772E+08, -2.798660353712624E+07,
2460224.500000000, A.D. 2023-Oct-07 00:00:00.0000, -4.599677707757340E+07, 3.202309768972559E+08, -2.887424216364619E+07,
2460231.500000000, A.D. 2023-Oct-14 00:00:00.0000, -5.858115531346322E+07, 3.189640340363810E+08, -2.972097786681642E+07,
2460238.500000000, A.D. 2023-Oct-21 00:00:00.0000, -7.108319907625863E+07, 3.172487829252778E+08, -3.052594152495226E+07,
2460245.500000000, A.D. 2023-Oct-28 00:00:00.0000, -8.348615087548672E+07, 3.150912528066404E+08, -3.128835013173521E+07,
2460252.500000000, A.D. 2023-Nov-04 00:00:00.0000, -9.577369730518597E+07, 3.124981287446468E+08, -3.200750621183445E+07,
2460259.500000000, A.D. 2023-Nov-11 00:00:00.0000, -1.079299949117729E+08, 3.094767160047226E+08, -3.268279690946779E+07,
2460266.500000000, A.D. 2023-Nov-18 00:00:00.0000, -1.199396931427463E+08, 3.060349036288802E+08, -3.331369279698612E+07,
2460273.500000000, A.D. 2023-Nov-25 00:00:00.0000, -1.317879543456172E+08, 3.021811274810435E+08, -3.389974642907016E+07,
2460280.500000000, A.D. 2023-Dec-02 00:00:00.0000, -1.434604708603813E+08, 2.979243329876285E+08, -3.444059066708733E+07,
2460287.500000000, A.D. 2023-Dec-09 00:00:00.0000, -1.549434792252592E+08, 2.932739377416903E+08, -3.493593680935913E+07,
2460294.500000000, A.D. 2023-Dec-16 00:00:00.0000, -1.662237713222077E+08, 2.882397942017569E+08, -3.538557257963797E+07,
2460301.500000000, A.D. 2023-Dec-23 00:00:00.0000, -1.772887022368934E+08, 2.828321533760861E+08, -3.578935997744891E+07,
2460308.500000000, A.D. 2023-Dec-30 00:00:00.0000, -1.881261963049219E+08, 2.770616307252496E+08, -3.614723280876790E+07,
2460315.500000000, A.D. 2024-Jan-06 00:00:00.0000, -1.987247532522938E+08, 2.709391720851997E+08, -3.645919395269521E+07,
2460322.500000000, A.D. 2024-Jan-13 00:00:00.0000, -2.090734513931788E+08, 2.644760179350136E+08, -3.672531282243496E+07,
2460329.500000000, A.D. 2024-Jan-20 00:00:00.0000, -2.191619468130105E+08, 2.576836692021555E+08, -3.694572289897837E+07,
2460336.500000000, A.D. 2024-Jan-27 00:00:00.0000, -2.289804707233025E+08, 2.505738553601882E+08, -3.712061911900962E+07,
2460343.500000000, A.D. 2024-Feb-03 00:00:00.0000, -2.385198255665715E+08, 2.431585039535195E+08, -3.725025517306275E+07,
2460350.500000000, A.D. 2024-Feb-10 00:00:00.0000, -2.477713797431580E+08, 2.354497113185270E+08, -3.733494077786722E+07,
2460357.500000000, A.D. 2024-Feb-17 00:00:00.0000, -2.567270609717423E+08, 2.274597145531785E+08, -3.737503894876049E+07,
2460364.500000000, A.D. 2024-Feb-24 00:00:00.0000, -2.653793483977322E+08, 2.192008647813860E+08, -3.737096328780977E+07,
2460371.500000000, A.D. 2024-Mar-02 00:00:00.0000, -2.737212635676078E+08, 2.106856017005531E+08, -3.732317530629833E+07,
2460378.500000000, A.D. 2024-Mar-09 00:00:00.0000, -2.817463602723849E+08, 2.019264293612595E+08, -3.723218181207455E+07,
2460385.500000000, A.D. 2024-Mar-16 00:00:00.0000, -2.894487129989447E+08, 1.929358933787637E+08, -3.709853239311245E+07,
2460392.500000000, A.D. 2024-Mar-23 00:00:00.0000, -2.968229042185849E+08, 1.837265606776714E+08, -3.692281690660708E+07,
2460399.500000000, A.D. 2024-Mar-30 00:00:00.0000, -3.038640128739110E+08, 1.743110017267434E+08, -3.670566277868626E+07,
2460406.500000000, A.D. 2024-Apr-06 00:00:00.0000, -3.105676039198892E+08, 1.647017718754183E+08, -3.644773242088522E+07,
2460413.500000000, A.D. 2024-Apr-13 00:00:00.0000, -3.169297154637833E+08, 1.549113925977614E+08, -3.614972102429233E+07,
2460420.500000000, A.D. 2024-Apr-20 00:00:00.0000, -3.229468445468013E+08, 1.449523352766593E+08, -3.581235442725581E+07,
2460427.500000000, A.D. 2024-Apr-27 00:00:00.0000, -3.286159331766390E+08, 1.348370069229195E+08, -3.543638696750910E+07,
2460434.500000000, A.D. 2024-May-04 00:00:00.0000, -3.339343546055723E+08, 1.245777370828677E+08, -3.502259938751820E+07,
2460441.500000000, A.D. 2024-May-11 00:00:00.0000, -3.388998996878373E+08, 1.141867657851235E+08, -3.457179682450292E+07,
2460448.500000000, A.D. 2024-May-18 00:00:00.0000, -3.435107632996689E+08, 1.036762324972447E+08, -3.408480689133176E+07,
2460455.500000000, A.D. 2024-May-25 00:00:00.0000, -3.477655308566868E+08, 9.305816603281152E+07, -3.356247785116271E+07,
2460462.500000000, A.D. 2024-Jun-01 00:00:00.0000, -3.516631649220779E+08, 8.234447529862250E+07, -3.300567689556561E+07,
2460469.500000000, A.D. 2024-Jun-08 00:00:00.0000, -3.552029917063566E+08, 7.154694080590419E+07, -3.241528854963383E+07,
2460476.500000000, A.D. 2024-Jun-15 00:00:00.0000, -3.583846871001751E+08, 6.067720743733010E+07, -3.179221319468500E+07,
2460483.500000000, A.D. 2024-Jun-22 00:00:00.0000, -3.612082632810910E+08, 4.974677959124775E+07, -3.113736551849244E+07,
2460490.500000000, A.D. 2024-Jun-29 00:00:00.0000, -3.636740580495082E+08, 3.876701682882509E+07, -3.045167284584728E+07,
2460497.500000000, A.D. 2024-Jul-06 00:00:00.0000, -3.657827242798382E+08, 2.774912750332310E+07, -2.973607379276111E+07,
2460504.500000000, A.D. 2024-Jul-13 00:00:00.0000, -3.675352175586331E+08, 1.670416314853818E+07, -2.899151718936346E+07,
2460511.500000000, A.D. 2024-Jul-20 00:00:00.0000, -3.689327840101113E+08, 5.643014725059129E+06, -2.821896099201069E+07,
2460518.500000000, A.D. 2024-Jul-27 00:00:00.0000, -3.699769489823914E+08, -5.423590284416140E+06, -2.741937120094341E+07,
2460525.500000000, A.D. 2024-Aug-03 00:00:00.0000, -3.706695063371919E+08, -1.648509034887644E+07, -2.659372083739280E+07,
2460532.500000000, A.D. 2024-Aug-10 00:00:00.0000, -3.710125081855936E+08, -2.753109197552802E+07, -2.574298899262424E+07,
2460539.500000000, A.D. 2024-Aug-17 00:00:00.0000, -3.710082550238271E+08, -3.855137142586372E+07, -2.486815994739800E+07,
2460546.500000000, A.D. 2024-Aug-24 00:00:00.0000, -3.706592862384958E+08, -4.953587612351633E+07, -2.397022236206674E+07,
2460553.500000000, A.D. 2024-Aug-31 00:00:00.0000, -3.699683708631600E+08, -6.047472585710452E+07, -2.305016854974241E+07,
2460560.500000000, A.D. 2024-Sep-07 00:00:00.0000, -3.689384982216291E+08, -7.135821369250044E+07, -2.210899385389426E+07,
2460567.500000000, A.D. 2024-Sep-14 00:00:00.0000, -3.675728683754158E+08, -8.217680563515002E+07, -2.114769605561603E+07,
2460574.500000000, A.D. 2024-Sep-21 00:00:00.0000, -3.658748844052011E+08, -9.292113866191670E+07, -2.016727458928590E+07,
2460581.500000000, A.D. 2024-Sep-28 00:00:00.0000, -3.638481470132910E+08, -1.035820203798610E+08, -1.916872978384403E+07,
2460588.500000000, A.D. 2024-Oct-05 00:00:00.0000, -3.614964477753223E+08, -1.141504303370005E+08, -1.815306246370870E+07,
2460595.500000000, A.D. 2024-Oct-12 00:00:00.0000, -3.588237613938519E+08, -1.246175200283266E+08, -1.712127362920167E+07,
2460602.500000000, A.D. 2024-Oct-19 00:00:00.0000, -3.558342386922106E+08, -1.349746118919906E+08, -1.607436407442021E+07,
2460609.500000000, A.D. 2024-Oct-26 00:00:00.0000, -3.525322003700092E+08, -1.452131981229429E+08, -1.501333400242934E+07,
2460616.500000000, A.D. 2024-Nov-02 00:00:00.0000, -3.489221312549003E+08, -1.553249394768966E+08, -1.393918267138098E+07,
2460623.500000000, A.D. 2024-Nov-09 00:00:00.0000, -3.450086749459407E+08, -1.653016640653804E+08, -1.285290807642967E+07,
2460630.500000000, A.D. 2024-Nov-16 00:00:00.0000, -3.407966288131725E+08, -1.751353661611368E+08, -1.175550666732516E+07,
2460637.500000000, A.D. 2024-Nov-23 00:00:00.0000, -3.362909392961872E+08, -1.848182050822711E+08, -1.064797310764176E+07,
2460644.500000000, A.D. 2024-Nov-30 00:00:00.0000, -3.314966972829206E+08, -1.943425042153559E+08, -9.531300095918462E+06,
2460651.500000000, A.D. 2024-Dec-07 00:00:00.0000, -3.264191331386511E+08, -2.037007497732182E+08, -8.406478250546813E+06,
2460658.500000000, A.D. 2024-Dec-14 00:00:00.0000, -3.210636120625095E+08, -2.128855880784534E+08, -7.274495892992094E+06,
2460665.500000000, A.D. 2024-Dec-21 00:00:00.0000, -3.154356320781199E+08, -2.218898226282458E+08, -6.136338616055965E+06,
2460672.500000000, A.D. 2024-Dec-28 00:00:00.0000, -3.095408226759081E+08, -2.307064139236562E+08, -4.992989058848158E+06,
2460679.500000000, A.D. 2025-Jan-04 00:00:00.0000, -3.033849415018927E+08, -2.393284797015311E+08, -3.845426930544615E+06,
2460686.500000000, A.D. 2025-Jan-11 00:00:00.0000, -2.969738709044710E+08, -2.477492939201083E+08, -2.694628977907866E+06,
2460693.500000000, A.D. 2025-Jan-18 00:00:00.0000, -2.903136152438952E+08, -2.559622854268830E+08, -1.541568885315984E+06,
2460700.500000000, A.D. 2025-Jan-25 00:00:00.0000, -2.834102987083237E+08, -2.639610367942247E+08, -3.872171665910929E+05,
2460707.500000000, A.D. 2025-Feb-01 00:00:00.0000, -2.762701634359542E+08, -2.717392833649014E+08, 7.674589331317991E+05,
2460714.500000000, A.D. 2025-Feb-08 00:00:00.0000, -2.688995678753449E+08, -2.792909124991752E+08, 1.921495523449346E+06,
$$EOE